FLOCK 4H-2              
1 66705U 25276AR  26068.76792564  .00008768  00000+0  41566-3 0  9997
2 66705  97.4241 144.0888 0000813  23.7853 336.3419 15.19528345 15330
ACCENTURE-1             
1 66767U 25276DF  26068.76687462  .00005020  00000+0  24178-3 0  9993
2 66767  97.4232 144.0790 0001861 116.0656 244.0770 15.19190222 15335
